{
    "links": {
        "self": "http://www.neowsapp.com/rest/v1/neo/3989416?api_key=iIulBulltgU6a56xZRHN4H3l9WmuAYTsLGpBGhQ2"
    },
    "id": "3989416",
    "neo_reference_id": "3989416",
    "name": "(2020 CT)",
    "designation": "2020 CT",
    "nasa_jpl_url": "http://ssd.jpl.nasa.gov/sbdb.cgi?sstr=3989416",
    "absolute_magnitude_h": 28.1,
    "estimated_diameter": {
        "kilometers": {
            "estimated_diameter_min": 0.0063760979,
            "estimated_diameter_max": 0.0142573883
        },
        "meters": {
            "estimated_diameter_min": 6.3760978988,
            "estimated_diameter_max": 14.2573883328
        },
        "miles": {
            "estimated_diameter_min": 0.0039619223,
            "estimated_diameter_max": 0.0088591276
        },
        "feet": {
            "estimated_diameter_min": 20.9189570301,
            "estimated_diameter_max": 46.7762099378
        }
    },
    "is_potentially_hazardous_asteroid": false,
    "close_approach_data": [
        {
            "close_approach_date": "2020-02-05",
            "close_approach_date_full": "2020-Feb-05 08:51",
            "epoch_date_close_approach": 1580892660000,
            "relative_velocity": {
                "kilometers_per_second": "13.2381856015",
                "kilometers_per_hour": "47657.4681654349",
                "miles_per_hour": "29612.497372017"
            },
            "miss_distance": {
                "astronomical": "0.0109717244",
                "lunar": "4.2680007916",
                "kilometers": "1641346.600467028",
                "miles": "1019885.4848118664"
            },
            "orbiting_body": "Earth"
        }
    ],
    "orbital_data": {
        "orbit_id": "4",
        "orbit_determination_date": "2020-02-20 04:53:41",
        "first_observation_date": "2020-02-02",
        "last_observation_date": "2020-02-04",
        "data_arc_in_days": 2,
        "observations_used": 24,
        "orbit_uncertainty": "8",
        "minimum_orbit_intersection": ".00801402",
        "jupiter_tisserand_invariant": "3.475",
        "epoch_osculation": "2458882.5",
        "eccentricity": ".5928313219723647",
        "semi_major_axis": "2.122676617873904",
        "inclination": "5.45087700674679",
        "ascending_node_longitude": "131.9108578646288",
        "orbital_period": "1129.598692149006",
        "perihelion_distance": ".8642874323798897",
        "perihelion_argument": "53.14925184377341",
        "aphelion_distance": "3.381065803367919",
        "perihelion_time": "2458919.573966832639",
        "mean_anomaly": "348.1846286185418",
        "mean_motion": ".3186972528404028",
        "equinox": "J2000",
        "orbit_class": {
            "orbit_class_type": "APO",
            "orbit_class_description": "Near-Earth asteroid orbits which cross the Earth’s orbit similar to that of 1862 Apollo",
            "orbit_class_range": "a (semi-major axis) > 1.0 AU; q (perihelion) < 1.017 AU"
        }
    },
    "is_sentry_object": false
}